SHIJIAN-6 05A (SJ-6 05A)
1 49961U 21122A   26068.88345882  .00003299  00000+0  27617-3 0  9993
2 49961  97.4012  42.3306 0003221  76.6317 283.5266 14.99085264233873
STARLINK-5599           
1 55766U 23028AB  26068.82788866 -.00001630  00000+0 -12890-3 0  9993
2 55766  69.9999 224.1123 0003060 269.3112  90.7696 14.98323956166550
